$$SOE
2460147.500000000, A.D. 2023-Jul-22 00:00:00.0000, -7.543309955015034E+06, -5.875338515727918E+08, 4.274038718126547E+07,
2460154.500000000, A.D. 2023-Jul-29 00:00:00.0000, 1.296284322755407E+06, -5.865823674978341E+08, 4.089364991111529E+07,
2460161.500000000, A.D. 2023-Aug-05 00:00:00.0000, 1.013551002531648E+07, -5.854908212957025E+08, 3.903714889489174E+07,
2460168.500000000, A.D. 2023-Aug-12 00:00:00.0000, 1.897224010188242E+07, -5.842586667953233E+08, 3.717127371997112E+07,
2460175.500000000, A.D. 2023-Aug-19 00:00:00.0000, 2.780432374367414E+07, -5.828853877531278E+08, 3.529642085618317E+07,
2460182.500000000, A.D. 2023-Aug-26 00:00:00.0000, 3.662958658068193E+07, -5.813704986213262E+08, 3.341299368271452E+07,
2460189.500000000, A.D. 2023-Sep-02 00:00:00.0000, 4.544583088033056E+07, -5.797135454005089E+08, 3.152140250634795E+07,
2460196.500000000, A.D. 2023-Sep-09 00:00:00.0000, 5.425083578548924E+07, -5.779141066173058E+08, 2.962206456410611E+07,
2460203.500000000, A.D. 2023-Sep-16 00:00:00.0000, 6.304235776114497E+07, -5.759717944846303E+08, 2.771540398993686E+07,
2460210.500000000, A.D. 2023-Sep-23 00:00:00.0000, 7.181813166702430E+07, -5.738862559572790E+08, 2.580185173053700E+07,
2460217.500000000, A.D. 2023-Sep-30 00:00:00.0000, 8.057587211734073E+07, -5.716571724916290E+08, 2.388184553864938E+07,
2460224.500000000, A.D. 2023-Oct-07 00:00:00.0000, 8.931327277458847E+07, -5.692842590512328E+08, 2.195583021520755E+07,
2460231.500000000, A.D. 2023-Oct-14 00:00:00.0000, 9.802800461826183E+07, -5.667672656700172E+08, 2.002425773400030E+07,
2460238.500000000, A.D. 2023-Oct-21 00:00:00.0000, 1.067177164184543E+08, -5.641059799694169E+08, 1.808758708359990E+07,
2460245.500000000, A.D. 2023-Oct-28 00:00:00.0000, 1.153800359911092E+08, -5.613002283688431E+08, 1.614628414193165E+07,
2460252.500000000, A.D. 2023-Nov-04 00:00:00.0000, 1.240125709857557E+08, -5.583498767591634E+08, 1.420082163521999E+07,
2460259.500000000, A.D. 2023-Nov-11 00:00:00.0000, 1.326129093841197E+08, -5.552548312380794E+08, 1.225167911601499E+07,
2460266.500000000, A.D. 2023-Nov-18 00:00:00.0000, 1.411786199299178E+08, -5.520150389705864E+08, 1.029934293490139E+07,
2460273.500000000, A.D. 2023-Nov-25 00:00:00.0000, 1.497072525634717E+08, -5.486304891506802E+08, 8.344306201001763E+06,
2460280.500000000, A.D. 2023-Dec-02 00:00:00.0000, 1.581963388902089E+08, -5.451012140741131E+08, 6.387068727668643E+06,
2460287.500000000, A.D. 2023-Dec-09 00:00:00.0000, 1.666433927618905E+08, -5.414272903797354E+08, 4.428136951253444E+06,
2460294.500000000, A.D. 2023-Dec-16 00:00:00.0000, 1.750459112591819E+08, -5.376088404456897E+08, 2.468023797406554E+06,
2460301.500000000, A.D. 2023-Dec-23 00:00:00.0000, 1.834013764249531E+08, -5.336460332520720E+08, 5.072485188781321E+05,
2460308.500000000, A.D. 2023-Dec-30 00:00:00.0000, 1.917072564086675E+08, -5.295390836597551E+08, -1.453663286830455E+06,
2460315.500000000, A.D. 2024-Jan-06 00:00:00.0000, 1.999610042497197E+08, -5.252882524643354E+08, -3.414179510756433E+06,
2460322.500000000, A.D. 2024-Jan-13 00:00:00.0000, 2.081600574731757E+08, -5.208938490298805E+08, -5.373761655912608E+06,
2460329.500000000, A.D. 2024-Jan-20 00:00:00.0000, 2.163018397225501E+08, -5.163562334163167E+08, -7.331865111515999E+06,
2460336.500000000, A.D. 2024-Jan-27 00:00:00.0000, 2.243837624017137E+08, -5.116758173470335E+08, -9.287939339080334E+06,
2460343.500000000, A.D. 2024-Feb-03 00:00:00.0000, 2.324032258981267E+08, -5.068530649638650E+08, -1.124142800905550E+07,
2460350.500000000, A.D. 2024-Feb-10 00:00:00.0000, 2.403576206652178E+08, -5.018884936589566E+08, -1.319176913768375E+07,
2460357.500000000, A.D. 2024-Feb-17 00:00:00.0000, 2.482443283029196E+08, -4.967826749739026E+08, -1.513839523654839E+07,
2460364.500000000, A.D. 2024-Feb-24 00:00:00.0000, 2.560607226723712E+08, -4.915362355495167E+08, -1.708073347726986E+07,
2460371.500000000, A.D. 2024-Mar-02 00:00:00.0000, 2.638041710740066E+08, -4.861498581566089E+08, -1.901820587701917E+07,
2460378.500000000, A.D. 2024-Mar-09 00:00:00.0000, 2.714720356276546E+08, -4.806242828681792E+08, -2.095022952298251E+07,
2460385.500000000, A.D. 2024-Mar-16 00:00:00.0000, 2.790616752498681E+08, -4.749603081732411E+08, -2.287621685610887E+07,
2460392.500000000, A.D. 2024-Mar-23 00:00:00.0000, 2.865704481248719E+08, -4.691587909208379E+08, -2.479557591414464E+07,
2460399.500000000, A.D. 2024-Mar-30 00:00:00.0000, 2.939957124277533E+08, -4.632206451185740E+08, -2.670771033068877E+07,
2460406.500000000, A.D. 2024-Apr-06 00:00:00.0000, 3.013348255556489E+08, -4.571468429502305E+08, -2.861201938907424E+07,
2460413.500000000, A.D. 2024-Apr-13 00:00:00.0000, 3.085851454183787E+08, -4.509384171731741E+08, -3.050789838855425E+07,
2460420.500000000, A.D. 2024-Apr-20 00:00:00.0000, 3.157440328368846E+08, -4.445964622171639E+08, -3.239473901680851E+07,
2460427.500000000, A.D. 2024-Apr-27 00:00:00.0000, 3.228088535322975E+08, -4.381221345445291E+08, -3.427192963555071E+07,
2460434.500000000, A.D. 2024-May-04 00:00:00.0000, 3.297769797927932E+08, -4.315166529732414E+08, -3.613885554478058E+07,
2460441.500000000, A.D. 2024-May-11 00:00:00.0000, 3.366457920555333E+08, -4.247812990623401E+08, -3.799489925579101E+07,
2460448.500000000, A.D. 2024-May-18 00:00:00.0000, 3.434126804844542E+08, -4.179174175354203E+08, -3.983944077853855E+07,
2460455.500000000, A.D. 2024-May-25 00:00:00.0000, 3.500750465672167E+08, -4.109264167463768E+08, -4.167185792600787E+07,
2460462.500000000, A.D. 2024-Jun-01 00:00:00.0000, 3.566303047896525E+08, -4.038097692416476E+08, -4.349152664545867E+07,
2460469.500000000, A.D. 2024-Jun-08 00:00:00.0000, 3.630758846326922E+08, -3.965690124386171E+08, -4.529782140066928E+07,
2460476.500000000, A.D. 2024-Jun-15 00:00:00.0000, 3.694092332902775E+08, -3.892057488721859E+08, -4.709011559689444E+07,
2460483.500000000, A.D. 2024-Jun-22 00:00:00.0000, 3.756278181019738E+08, -3.817216448322632E+08, -4.886778185992345E+07,
2460490.500000000, A.D. 2024-Jun-29 00:00:00.0000, 3.817291265766835E+08, -3.741184292110079E+08, -5.063019212303622E+07,
2460497.500000000, A.D. 2024-Jul-06 00:00:00.0000, 3.877106666497769E+08, -3.663978950279846E+08, -5.237671796594027E+07,
2460504.500000000, A.D. 2024-Jul-13 00:00:00.0000, 3.935699691207653E+08, -3.585619008061198E+08, -5.410673115325718E+07,
2460511.500000000, A.D. 2024-Jul-20 00:00:00.0000, 3.993045902840022E+08, -3.506123706475782E+08, -5.581960409620191E+07,
2460518.500000000, A.D. 2024-Jul-27 00:00:00.0000, 4.049121140941344E+08, -3.425512939670837E+08, -5.751471025538303E+07,
2460525.500000000, A.D. 2024-Aug-03 00:00:00.0000, 4.103901541365743E+08, -3.343807252555704E+08, -5.919142454009542E+07,
2460532.500000000, A.D. 2024-Aug-10 00:00:00.0000, 4.157363555658935E+08, -3.261027838764249E+08, -6.084912371937840E+07,
2460539.500000000, A.D. 2024-Aug-17 00:00:00.0000, 4.209483970564137E+08, -3.177196538703378E+08, -6.248718684709945E+07,
2460546.500000000, A.D. 2024-Aug-24 00:00:00.0000, 4.260239927895541E+08, -3.092335837887007E+08, -6.410499570511100E+07,
2460553.500000000, A.D. 2024-Aug-31 00:00:00.0000, 4.309608945900837E+08, -3.006468866145562E+08, -6.570193527973676E+07,
2460560.500000000, A.D. 2024-Sep-07 00:00:00.0000, 4.357568945734935E+08, -2.919619396421139E+08, -6.727739429439178E+07,
2460567.500000000, A.D. 2024-Sep-14 00:00:00.0000, 4.404098283872023E+08, -2.831811833168390E+08, -6.883076572445393E+07,
2460574.500000000, A.D. 2024-Sep-21 00:00:00.0000, 4.449175770145132E+08, -2.743071186227096E+08, -7.036144707438381E+07,
2460581.500000000, A.D. 2024-Sep-28 00:00:00.0000, 4.492780666503622E+08, -2.653423062438924E+08, -7.186884063584019E+07,
2460588.500000000, A.D. 2024-Oct-05 00:00:00.0000, 4.534892703142627E+08, -2.562893674978880E+08, -7.335235406269474E+07,
2460595.500000000, A.D. 2024-Oct-12 00:00:00.0000, 4.575492108362711E+08, -2.471509840588682E+08, -7.481140098576693E+07,
2460602.500000000, A.D. 2024-Oct-19 00:00:00.0000, 4.614559634617940E+08, -2.379298967416687E+08, -7.624540152827506E+07,
2460609.500000000, A.D. 2024-Oct-26 00:00:00.0000, 4.652076580392457E+08, -2.286289041478141E+08, -7.765378278390649E+07,
2460616.500000000, A.D. 2024-Nov-02 00:00:00.0000, 4.688024810439373E+08, -2.192508613220459E+08, -7.903597929250082E+07,
2460623.500000000, A.D. 2024-Nov-09 00:00:00.0000, 4.722386775305052E+08, -2.097986783988403E+08, -8.039143351965091E+07,
2460630.500000000, A.D. 2024-Nov-16 00:00:00.0000, 4.755145530351273E+08, -2.002753192388763E+08, -8.171959634155478E+07,
2460637.500000000, A.D. 2024-Nov-23 00:00:00.0000, 4.786284754694343E+08, -1.906838001054828E+08, -8.301992754231958E+07,
2460644.500000000, A.D. 2024-Nov-30 00:00:00.0000, 4.815788772092719E+08, -1.810271884235003E+08, -8.429189634499545E+07,
2460651.500000000, A.D. 2024-Dec-07 00:00:00.0000, 4.843642577932038E+08, -1.713086011993598E+08, -8.553498197913574E+07,
2460658.500000000, A.D. 2024-Dec-14 00:00:00.0000, 4.869831865392248E+08, -1.615312018783859E+08, -8.674867412072232E+07,
2460665.500000000, A.D. 2024-Dec-21 00:00:00.0000, 4.894343027592449E+08, -1.516981968819979E+08, -8.793247309259923E+07,
2460672.500000000, A.D. 2024-Dec-28 00:00:00.0000, 4.917163155402967E+08, -1.418128347950319E+08, -8.908589024802145E+07,
2460679.500000000, A.D. 2025-Jan-04 00:00:00.0000, 4.938280056850848E+08, -1.318784058291434E+08, -9.020844858015339E+07,
2460686.500000000, A.D. 2025-Jan-11 00:00:00.0000, 4.957682279867378E+08, -1.218982399045855E+08, -9.129968325363275E+07,
2460693.500000000, A.D. 2025-Jan-18 00:00:00.0000, 4.975359129172559E+08, -1.118757042718062E+08, -9.235914204801910E+07,
2460700.500000000, A.D. 2025-Jan-25 00:00:00.0000, 4.991300679694597E+08, -1.018142011502306E+08, -9.338638577302119E+07,
2460707.500000000, A.D. 2025-Feb-01 00:00:00.0000, 5.005497788383118E+08, -9.171716541726872E+07, -9.438098867410803E+07,
2460714.500000000, A.D. 2025-Feb-08 00:00:00.0000, 5.017942104965882E+08, -8.158806233096611E+07, -9.534253883105990E+07,
$$EOE